NORAD_CAT_ID,OBJECT_NAME,OBJECT_TYPE,EPOCH,MEAN_MOTION,ECCENTRICITY,INCLINATION,RA_OF_ASC_NODE,ARG_OF_PERICENTER,MEAN_ANOMALY,BSTAR,MEAN_MOTION_DOT,MEAN_MOTION_DDOT,TLE_LINE0,TLE_LINE1,TLE_LINE2,SEMIMAJOR_AXIS,PERIOD,APOGEE,PERIGEE,DECAYED
53630.0,STARLINK-4598,PAYLOAD,2024-04-28 22:19:24,15.0883124,0.0001292,53.2193,35.7537,109.5536,250.5596,-3.2724e-05,-8.08e-06,0.0,0 STARLINK-4598,1 53630U 22104AU  24119.93014917 -.00000808  00000-0 -32724-4 0  9997,2 53630  53.2193  35.7537 0001292 109.5536 250.5596 15.08831240 93449,6917.907,95.438,540.666,538.878,0.0
53630.0,STARLINK-4598,PAYLOAD,2024-04-29 03:05:34,15.08838711,0.0001397,53.2194,34.8627,111.7874,248.3267,7.767e-05,9.48e-06,0.0,0 STARLINK-4598,1 53630U 22104AU  24120.12886701  .00000948  00000-0  77670-4 0  9990,2 53630  53.2194  34.8627 0001397 111.7874 248.3267 15.08838711 92614,6917.884,95.438,540.716,538.783,0.0
53630.0,STARLINK-4598,PAYLOAD,2024-04-29 11:02:28,15.0885272,0.0001349,53.2198,33.3764,107.8455,252.2684,0.00015225,2.137e-05,0.0,0 STARLINK-4598,1 53630U 22104AU  24120.46005675  .00002137  00000-0  15225-3 0  9999,2 53630  53.2198  33.3764 0001349 107.8455 252.2684 15.08852720 92660,6917.842,95.437,540.64,538.773,0.0
53630.0,STARLINK-4598,PAYLOAD,2024-04-29 18:59:26,15.08826439,0.0001294,53.2188,31.8887,112.0784,248.0346,8.5289e-05,1.069e-05,0.0,0 STARLINK-4598,1 53630U 22104AU  24120.79127349  .00001069  00000-0  85289-4 0  9999,2 53630  53.2188  31.8887 0001294 112.0784 248.0346 15.08826439 92712,6917.922,95.438,540.682,538.892,0.0
53630.0,STARLINK-4598,PAYLOAD,2024-04-29 22:10:12,15.08829345,0.0001396,53.2183,31.2929,109.152,250.9623,0.00015194,2.13e-05,0.0,0 STARLINK-4598,1 53630U 22104AU  24120.92375272  .00002130  00000-0  15194-3 0  9991,2 53630  53.2183  31.2929 0001396 109.1520 250.9623 15.08829345 93592,6917.913,95.438,540.744,538.812,0.0
53630.0,STARLINK-4598,PAYLOAD,2024-04-30 04:31:44,15.0883754,0.0001405,53.2187,30.1034,107.8049,252.3097,0.00023255,3.415e-05,0.0,0 STARLINK-4598,1 53630U 22104AU  24121.18871148  .00003415  00000-0  23255-3 0  9997,2 53630  53.2187  30.1034 0001405 107.8049 252.3097 15.08837540 92779,6917.888,95.438,540.725,538.781,0.0
53630.0,STARLINK-4598,PAYLOAD,2024-04-30 10:53:16,15.08847438,0.0001358,53.2196,28.9148,97.8402,262.2744,0.00030641,4.593e-05,0.0,0 STARLINK-4598,1 53630U 22104AU  24121.45366620  .00004593  00000-0  30641-3 0  9996,2 53630  53.2196  28.9148 0001358  97.8402 262.2744 15.08847438 92819,6917.858,95.437,540.662,538.783,0.0
53630.0,STARLINK-4598,PAYLOAD,2024-04-30 22:00:59,15.08841366,0.00018,53.2173,26.8339,93.0691,267.0507,9.9414e-05,1.294e-05,0.0,0 STARLINK-4598,1 53630U 22104AU  24121.91734978  .00001294  00000-0  99414-4 0  9991,2 53630  53.2173  26.8339 0001800  93.0691 267.0507 15.08841366 93740,6917.876,95.437,540.986,538.496,0.0
53630.0,STARLINK-4598,PAYLOAD,2024-05-01 02:47:08,15.08845588,0.0001159,53.2181,25.9401,95.6201,264.4923,4.6804e-05,4.57e-06,0.0,0 STARLINK-4598,1 53630U 22104AU  24122.11606672  .00000457  00000-0  46804-4 0  9998,2 53630  53.2181  25.9401 0001159  95.6201 264.4923 15.08845588 92912,6917.863,95.437,540.53,538.927,0.0
53630.0,STARLINK-4598,PAYLOAD,2024-05-01 10:44:03,15.0885325,0.0001175,53.2178,24.4553,103.3359,256.7764,0.00015426,2.169e-05,0.0,0 STARLINK-4598,1 53630U 22104AU  24122.44726209  .00002169  00000-0  15426-3 0  9990,2 53630  53.2178  24.4553 0001175 103.3359 256.7764 15.08853250 93822,6917.84,95.437,540.518,538.892,0.0
53630.0,STARLINK-4598,PAYLOAD,2024-05-02 10:34:49,15.08861477,0.0001142,53.2175,19.9935,91.6412,268.4711,0.00029057,4.342e-05,0.0,0 STARLINK-4598,1 53630U 22104AU  24123.44085451  .00004342  00000-0  29057-3 0  9998,2 53630  53.2175  19.9935 0001142  91.6412 268.4711 15.08861477 93119,6917.815,95.436,540.47,538.89,0.0
53630.0,STARLINK-4598,PAYLOAD,2024-05-03 10:25:35,15.08874304,0.0001385,53.2176,15.5299,97.5071,262.6079,0.00062369,9.661e-05,0.0,0 STARLINK-4598,1 53630U 22104AU  24124.43444015  .00009661  00000-0  62369-3 0  9995,2 53630  53.2176  15.5299 0001385  97.5071 262.6079 15.08874304 94128,6917.776,95.435,540.599,538.682,0.0
53630.0,STARLINK-4598,PAYLOAD,2024-05-03 19:57:55,15.0880848,0.0001195,53.2164,13.7492,107.2909,252.8214,-0.0011564,-0.00018629,0.0,0 STARLINK-4598,1 53630U 22104AU  24124.83189768 -.00018629  00000-0 -11564-2 0  9996,2 53630  53.2164  13.7492 0001195 107.2909 252.8214 15.08808480 93323,6917.977,95.44,540.668,539.015,0.0
53630.0,STARLINK-4598,PAYLOAD,2024-05-03 23:08:42,15.08801194,0.0001243,53.2175,13.1543,108.4315,251.6812,-0.0012508,-0.00020118,0.0,0 STARLINK-4598,1 53630U 22104AU  24124.96437903 -.00020118  00000-0 -12508-2 0  9992,2 53630  53.2175  13.1543 0001243 108.4315 251.6812 15.08801194 94208,6917.999,95.44,540.724,539.004,0.0
53630.0,STARLINK-4598,PAYLOAD,2024-05-04 21:24:08,15.08821913,0.0001161,53.2181,8.992,116.7064,243.4047,0.0016646,0.0002629,0.0,0 STARLINK-4598,1 53630U 22104AU  24125.89176629  .00026290  00000-0  16646-2 0  9992,2 53630  53.2181   8.9920 0001161 116.7064 243.4047 15.08821913 93487,6917.936,95.439,540.604,538.998,0.0
53630.0,STARLINK-4598,PAYLOAD,2024-05-05 02:10:18,15.08833456,0.0001124,53.2182,8.1001,117.0544,243.0563,0.0018422,0.00029147,0.0,0 STARLINK-4598,1 53630U 22104AU  24126.09048781  .00029147  00000-0  18422-2 0  9990,2 53630  53.2182   8.1001 0001124 117.0544 243.0563 15.08833456 94379,6917.9,95.438,540.543,538.988,0.0
53630.0,STARLINK-4598,PAYLOAD,2024-05-05 22:50:18,15.08871788,0.0001065,53.2179,4.2345,120.3354,239.7744,0.0017673,0.00027975,0.0,0 STARLINK-4598,1 53630U 22104AU  24126.95160136  .00027975  00000-0  17673-2 0  9998,2 53630  53.2179   4.2345 0001065 120.3354 239.7744 15.08871788 94501,6917.783,95.436,540.385,538.911,0.0
53630.0,STARLINK-4598,PAYLOAD,2024-05-06 08:22:36,15.08894882,0.0001035,53.218,2.4504,122.9526,237.1566,0.0020135,0.00031951,0.0,0 STARLINK-4598,1 53630U 22104AU  24127.34902996  .00031951  00000-0  20135-2 0  9996,2 53630  53.2180   2.4504 0001035 122.9526 237.1566 15.08894882 94566,6917.713,95.434,540.294,538.862,0.0
53630.0,STARLINK-4598,PAYLOAD,2024-05-06 21:05:40,15.08868057,0.0001118,53.2178,0.0719,118.7667,241.3438,0.0013671,0.00021553,0.0,0 STARLINK-4598,1 53630U 22104AU  24127.87894574  .00021553  00000-0  13671-2 0  9990,2 53630  53.2178   0.0719 0001118 118.7667 241.3438 15.08868057 93789,6917.795,95.436,540.433,538.886,0.0
53630.0,STARLINK-4598,PAYLOAD,2024-05-06 22:41:03,15.08868601,9.54e-05,53.2175,359.7745,115.3499,244.7592,0.0016541,0.00026156,0.0,0 STARLINK-4598,1 53630U 22104AU  24127.94518483  .00026156  00000-0  16541-2 0  9993,2 53630  53.2175 359.7745 0000954 115.3499 244.7592 15.08868601 94652,6917.793,95.436,540.318,538.998,0.0
53630.0,STARLINK-4598,PAYLOAD,2024-05-07 08:13:21,15.08889045,8.24e-05,53.2172,357.9899,101.0846,259.0238,0.0019913,0.00031588,0.0,0 STARLINK-4598,1 53630U 22104AU  24128.34261573  .00031588  00000-0  19913-2 0  9994,2 53630  53.2172 357.9899 0000824 101.0846 259.0238 15.08889045 94711,6917.73,95.434,540.166,539.025,0.0
53630.0,STARLINK-4598,PAYLOAD,2024-05-07 20:56:28,15.08826441,8.25e-05,53.2169,355.6115,96.2432,263.8654,0.00057222,8.827e-05,0.0,0 STARLINK-4598,1 53630U 22104AU  24128.87254657  .00008827  00000-0  57222-3 0  9993,2 53630  53.2169 355.6115 0000825  96.2432 263.8654 15.08826441 93939,6917.922,95.438,540.358,539.216,0.0
53630.0,STARLINK-4598,PAYLOAD,2024-05-07 22:31:51,15.08824072,7.32e-05,53.2167,355.314,85.8672,274.2404,0.00097416,0.00015243,0.0,0 STARLINK-4598,1 53630U 22104AU  24128.93878725  .00015243  00000-0  97416-3 0  9997,2 53630  53.2167 355.3140 0000732  85.8672 274.2404 15.08824072 94803,6917.929,95.439,540.3,539.288,0.0
53630.0,STARLINK-4598,PAYLOAD,2024-05-08 08:04:09,15.08873215,5.8e-05,53.2171,353.5308,81.3321,278.7737,0.0015398,0.00024325,0.0,0 STARLINK-4598,1 53630U 22104AU  24129.33621616  .00024325  00000-0  15398-2 0  9996,2 53630  53.2171 353.5308 0000580  81.3321 278.7737 15.08873215 94000,6917.779,95.435,540.045,539.243,0.0
53630.0,STARLINK-4598,PAYLOAD,2024-05-08 20:47:14,15.08837245,9.64e-05,53.2161,351.1498,91.7527,268.3575,0.00072363,0.00011247,0.0,0 STARLINK-4598,1 53630U 22104AU  24129.86614552  .00011247  00000-0  72363-3 0  9990,2 53630  53.2161 351.1498 0000964  91.7527 268.3575 15.08837245 94088,6917.889,95.438,540.421,539.087,0.0
53630.0,STARLINK-4598,PAYLOAD,2024-05-08 22:22:38,15.08840209,9.83e-05,53.2163,350.8526,92.3684,267.7421,0.00087049,0.00013593,0.0,0 STARLINK-4598,1 53630U 22104AU  24129.93238568  .00013593  00000-0  87049-3 0  9990,2 53630  53.2163 350.8526 0000983  92.3684 267.7421 15.08840209 94953,6917.88,95.438,540.425,539.065,0.0
53630.0,STARLINK-4598,PAYLOAD,2024-05-09 07:54:56,15.0885773,9.71e-05,53.2154,349.0651,85.8487,274.2616,0.001152,0.00018103,0.0,0 STARLINK-4598,1 53630U 22104AU  24130.32982269  .00018103  00000-0  11520-2 0  9991,2 53630  53.2154 349.0651 0000971  85.8487 274.2616 15.08857730 95011,6917.826,95.436,540.363,539.019,0.0
53630.0,STARLINK-4598,PAYLOAD,2024-05-09 20:38:02,15.08843432,9.51e-05,53.2159,346.6901,77.7838,282.326,0.0016798,0.0002655,0.0,0 STARLINK-4598,1 53630U 22104AU  24130.85974961  .00026550  00000-0  16798-2 0  9996,2 53630  53.2159 346.6901 0000951  77.7838 282.3260 15.08843432 94237,6917.87,95.437,540.393,539.077,0.0
53630.0,STARLINK-4598,PAYLOAD,2024-05-10 07:45:44,15.08856349,0.0001094,53.2166,344.6072,77.791,282.3204,0.0016971,0.00026837,0.0,0 STARLINK-4598,1 53630U 22104AU  24131.32342799  .00026837  00000-0  16971-2 0  9998,2 53630  53.2166 344.6072 0001094  77.7910 282.3204 15.08856349 94309,6917.83,95.437,540.452,538.939,0.0
53630.0,STARLINK-4598,PAYLOAD,2024-05-10 14:07:17,15.08860153,0.0002833,53.2166,343.4187,84.3412,275.7903,0.0018601,0.00029457,0.0,0 STARLINK-4598,1 53630U 22104AU  24131.58839396  .00029457  00000-0  18601-2 0  9993,2 53630  53.2166 343.4187 0002833  84.3412 275.7903 15.08860153 95206,6917.819,95.436,541.644,537.724,0.0
